#aV2006  7 18  0  0   .00000000      96 DD+AD WGS84 FIT  NGA
## 1384 172800.00000000   900.00000000 53934  .0000000000000
+   29     1  2  3  4  5  6  7  8  9 10 11 13 14 15 16 17 18
+         19 20 21 22 23 24 25 26 27 28 29 30  0  0  0  0  0
+          0  0  0  0  0  0  0  0  0  0  0  0  0  0  0  0  0
+          0  0  0  0  0  0  0  0  0  0  0  0  0  0  0  0  0
+          0  0  0  0  0  0  0  0  0  0  0  0  0  0  0  0  0
++         0  0  0  0  0  0  0  0  0  0  0  0  0  0  0  0  0
++         0  0  0  0  0  0  0  0  0  0  0  0  0  0  0  0  0
++         0  0  0  0  0  0  0  0  0  0  0  0  0  0  0  0  0
++         0  0  0  0  0  0  0  0  0  0  0  0  0  0  0  0  0
++         0  0  0  0  0  0  0  0  0  0  0  0  0  0  0  0  0
%c cc cc ccc ccc cccc cccc cccc cccc ccccc ccccc ccccc ccccc
%c cc cc ccc ccc cccc cccc cccc cccc ccccc ccccc ccccc ccccc
%f  0.0000000  0.000000000  0.00000000000  0.000000000000000
%f  0.0000000  0.000000000  0.00000000000  0.000000000000000
%i    0    0    0    0      0      0      0      0         0
%i    0    0    0    0      0      0      0      0         0
/*      NGA, ST. LOUIS,MO.                                  
/*   EPHEMERIS COMPUTED FROM  3 DAYS OF DATA                
/* CCCCCCCCCCCCCCCCCCCCCCCCCCCCCCCCCCCCCCCCCCCCCCCCCCCCCCCCC
/* CCCCCCCCCCCCCCCCCCCCCCCCCCCCCCCCCCCCCCCCCCCCCCCCCCCCCCCCC
*  2006  7 18 19 15   .00000000                                                 
P  1   5906.733083 -16615.458240  20037.458456     66.116734                    
V  1  23470.708503  -8545.195880 -14194.595541       .019901                    
P  2   6190.356261  19360.412220  16962.850638     15.051168                    
V  2 -18961.368962 -11251.768682  19257.594741       .037125                    
P  3   -798.919742 -17156.429929 -20361.535315    216.309502                    
V  3  22977.419122 -11558.754518   9226.296451      -.204738                    
P  4  -6966.957964  13955.734740  21432.906557    277.073569                    
V  4 -22242.969688 -15972.031280   3508.441625       .074618                    
P  5  13130.870515  13959.471080  18250.079439    233.871893                    
V  5  -2199.560475  23576.737578 -16101.135741       .316086                    
P  6  24741.191561  -5162.682827   8477.134995    590.075855                    
V  6  -7992.584189   7591.675887  28546.824360       .058808                    
P  7  16476.636771 -17664.164208 -10831.077714    540.444924                    
V  7  14097.272161  -3850.364415  26763.512569      -.012529                    
P  8 -14579.546253   6951.711655 -21302.188267    -72.922400                    
V  8 -20650.133382 -16763.550262   8319.088948      -.012906                    
P  9  21063.271876  16274.933072  -2745.991343     28.453612                    
V  9  -3704.452473    555.838802 -31347.346139       .014233                    
P 10   1550.629531  25479.353429  -6829.096299     86.775677                    
V 10  -3562.293743   8232.242056  30631.966829       .005740                    
P 11 -23412.932371 -12804.702234   -876.957742    340.028963                    
V 11   3016.194383  -3600.492200 -30085.455354       .022049                    
P 13 -24891.645822   5063.001538   7580.137729     78.269833                    
V 13   8297.926272  -5390.801782  30517.479460       .030730                    
P 14  19622.783536 -15264.396696   9326.408489     -9.581911                    
V 14  11501.911305  -2983.751241 -29345.466979       .008023                    
P 15  14435.365553  -7438.214870 -21230.362137    647.158150                    
V 15  20035.049959  17446.498687   7146.758187       .064673                    
P 16   1717.609439 -26381.368872  -1705.816485     57.661325                    
V 16   3092.821414  -1947.599979  31772.092167       .028755                    
P 17 -20042.773689  15290.192718   8197.299529    100.179655                    
V 17 -10645.234004   1788.430886 -29447.439747      -.002924                    
P 18  15448.182871  -6636.131497 -20377.576081   -243.505981                    
V 18  -2599.278826  26107.019849 -10729.560096      -.012777                    
P 19 -11457.177122 -11427.230342 -20961.242012      1.479947                    
V 19  24867.635676 -10206.367988  -7928.953848       .024955                    
P 20 -13613.019799  -9814.404428  20500.366718    -24.080089                    
V 20   3315.212372 -26053.288823 -10200.026542       .003904                    
P 21  20426.149507     78.713689 -17183.670702     42.404417                    
V 21  16149.484432  14759.185658  18641.484365       .022268                    
P 22  11962.337688 -20082.912819 -12437.889508    117.474760                    
V 22     68.233198  16254.613562 -25877.963668       .037873                    
P 23 -20258.927210  -3521.763237  16812.122490    138.273264                    
V 23  18892.518509 -10266.922781  20326.372900      -.003365                    
P 24 -14790.410062   7151.725276  21156.176486     21.667761                    
V 24 -20139.586690 -16881.038390  -8198.919684       .029303                    
P 25   -105.825510 -17065.116008  20716.485695    168.577193                    
V 25  22458.111302  12052.626771  10381.135852       .740682                    
P 26   9566.666243  11810.949757 -22242.225969   -184.299078                    
V 26 -25028.070120  10466.318989  -4740.379636      -.131651                    
P 27 -21313.021043   -664.703647 -15427.222593     58.619354                    
V 27 -16342.914894 -12655.857334  21946.452182       .017332                    
P 28 -12906.829928  16846.672741 -15457.298513     22.849694                    
V 28    153.680297 -20428.051111 -22317.294705      -.007697                    
P 29   5906.408586  13281.325984 -21999.000617    629.794283                    
V 29 -25880.050474  11742.746986    417.008883       .024908                    
P 30  15461.532247   -541.555506  21299.428343      4.043908                    
V 30  -1528.390349  27745.133660   1908.287707       .012257                    
EOF
